0 DELTA 1 DEB
1 12236U 78026CD  13282.94899543  .00000719  00000-0  58744-3 0  1040
2 12236 098.8249 329.2174 0223734 276.4486 208.4943 13.81862189638961
0 DELTA 1 DEB
1 12236U 78026CD  13287.59081932  .00000866  00000-0  69999-3 0  1060
2 12236 098.8238 333.5668 0223948 263.8890 260.2823 13.81869546639600
0 DELTA 1 DEB
1 12236U 78026CD  13289.61693826  .00000864  00000-0  69849-3 0  1079
2 12236 098.8233 335.4649 0224058 258.4095 259.7035 13.81873846639881
0 DELTA 1 DEB
1 12236U 78026CD  13292.58741619  .00000892  00000-0  71963-3 0  1085
2 12236 098.8228 338.2474 0224224 250.3831 277.1134 13.81878900640293
0 DELTA 1 DEB
1 12236U 78026CD  13294.61375208  .00000934  00000-0  75166-3 0  1095
2 12236 098.8229 340.1452 0224352 244.9110 277.6745 13.81882763640579
